NORAD_CAT_ID,OBJECT_NAME,OBJECT_TYPE,EPOCH,MEAN_MOTION,ECCENTRICITY,INCLINATION,RA_OF_ASC_NODE,ARG_OF_PERICENTER,MEAN_ANOMALY,BSTAR,MEAN_MOTION_DOT,MEAN_MOTION_DDOT,TLE_LINE0,TLE_LINE1,TLE_LINE2,SEMIMAJOR_AXIS,PERIOD,APOGEE,PERIGEE,DECAYED
51112.0,STARLINK-3374,PAYLOAD,2023-06-11 21:13:15,15.08839426,0.0001145,53.2174,106.4009,91.7646,268.3477,8.2707e-05,1.029e-05,0.0,0 STARLINK-3374,1 51112U 22005J   23162.88420208  .00001029  00000-0  82707-4 0  9995,2 51112  53.2174 106.4009 0001145  91.7646 268.3477 15.08839426 77645,6917.882,95.438,540.539,538.955,0.0
51112.0,STARLINK-3374,PAYLOAD,2023-06-12 05:10:10,15.08845216,0.0001161,53.2175,104.9141,91.2593,268.8532,0.00012327,1.675e-05,0.0,0 STARLINK-3374,1 51112U 22005J   23163.21539697  .00001675  00000-0  12327-3 0  9993,2 51112  53.2175 104.9141 0001161  91.2593 268.8532 15.08845216 78800,6917.864,95.437,540.533,538.926,0.0
51112.0,STARLINK-3374,PAYLOAD,2023-06-12 21:04:02,15.08829179,0.0001148,53.2177,101.9405,90.3709,269.7414,3.6141e-05,2.87e-06,0.0,0 STARLINK-3374,1 51112U 22005J   23163.87781187  .00000287  00000-0  36141-4 0  9997,2 51112  53.2177 101.9405 0001148  90.3709 269.7414 15.08829179 78906,6917.913,95.438,540.573,538.984,0.0
51112.0,STARLINK-3374,PAYLOAD,2023-06-13 05:00:58,15.08834943,0.0001303,53.2179,100.453,97.2228,262.8912,6.1257e-05,6.87e-06,0.0,0 STARLINK-3374,1 51112U 22005J   23164.20900835  .00000687  00000-0  61257-4 0  9998,2 51112  53.2179 100.4530 0001303  97.2228 262.8912 15.08834943 78953,6917.896,95.438,540.662,538.859,0.0
51112.0,STARLINK-3374,PAYLOAD,2023-06-13 19:19:26,15.08835997,0.0001165,53.2176,97.7775,90.3156,269.7969,2.8444e-05,1.65e-06,0.0,0 STARLINK-3374,1 51112U 22005J   23164.80517009  .00000165  00000-0  28444-4 0  9993,2 51112  53.2176  97.7775 0001165  90.3156 269.7969 15.08835997 77934,6917.893,95.438,540.564,538.952,0.0
51112.0,STARLINK-3374,PAYLOAD,2023-06-14 04:51:45,15.08845312,0.0001241,53.2175,95.993,88.0903,272.0231,2.6012e-05,1.26e-06,0.0,0 STARLINK-3374,1 51112U 22005J   23165.20260443  .00000126  00000-0  26012-4 0  9991,2 51112  53.2175  95.9930 0001241  88.0903 272.0231 15.08845312 79107,6917.864,95.437,540.588,538.871,0.0
51112.0,STARLINK-3374,PAYLOAD,2023-06-14 19:10:13,15.08839531,0.0001283,53.2173,93.3171,85.4529,274.661,5.1442e-05,5.31e-06,0.0,0 STARLINK-3374,1 51112U 22005J   23165.79876775  .00000531  00000-0  51442-4 0  9991,2 51112  53.2173  93.3171 0001283  85.4529 274.6610 15.08839531 78086,6917.882,95.438,540.634,538.859,0.0
51112.0,STARLINK-3374,PAYLOAD,2023-06-15 04:42:31,15.08844157,0.0001254,53.2173,91.5335,91.9633,268.1502,9.0405e-05,1.151e-05,0.0,0 STARLINK-3374,1 51112U 22005J   23166.19620298  .00001151  00000-0  90405-4 0  9994,2 51112  53.2173  91.5335 0001254  91.9633 268.1502 15.08844157 78149,6917.868,95.437,540.6,538.865,0.0
51112.0,STARLINK-3374,PAYLOAD,2023-06-16 01:22:32,15.08847208,0.0001184,53.2174,87.6663,95.1842,264.9286,6.9514e-05,8.19e-06,0.0,0 STARLINK-3374,1 51112U 22005J   23167.05732157  .00000819  00000-0  69514-4 0  9995,2 51112  53.2174  87.6663 0001184  95.1842 264.9286 15.08847208 79380,6917.858,95.437,540.542,538.904,0.0
51112.0,STARLINK-3374,PAYLOAD,2023-06-16 04:33:18,15.0885019,0.0001188,53.2173,87.0714,93.9388,266.174,7.9019e-05,9.7e-06,0.0,0 STARLINK-3374,1 51112U 22005J   23167.18979909  .00000970  00000-0  79019-4 0  9996,2 51112  53.2173  87.0714 0001188  93.9388 266.1740 15.08850190 78297,6917.849,95.437,540.536,538.892,0.0
51112.0,STARLINK-3374,PAYLOAD,2023-06-16 18:51:47,15.08844874,0.0001242,53.2171,84.3948,102.433,257.6801,4.9981e-05,5.08e-06,0.0,0 STARLINK-3374,1 51112U 22005J   23167.78596108  .00000508  00000-0  49981-4 0  9990,2 51112  53.2171  84.3948 0001242 102.4330 257.6801 15.08844874 78383,6917.865,95.437,540.59,538.871,0.0
51112.0,STARLINK-3374,PAYLOAD,2023-06-17 04:24:05,15.08853645,0.000111,53.2173,82.6124,88.7447,271.3672,0.0001151,1.545e-05,0.0,0 STARLINK-3374,1 51112U 22005J   23168.18339236  .00001545  00000-0  11510-3 0  9990,2 51112  53.2173  82.6124 0001110  88.7447 271.3672 15.08853645 79556,6917.839,95.437,540.472,538.936,0.0
51112.0,STARLINK-3374,PAYLOAD,2023-06-17 10:45:39,15.08828971,0.0001653,53.217,81.4209,83.6825,276.4356,-4.6014e-05,-1.02e-05,0.0,0 STARLINK-3374,1 51112U 22005J   23168.44837527 -.00001020  00000-0 -46014-4 0  9993,2 51112  53.2170  81.4209 0001653  83.6825 276.4356 15.08828971 78480,6917.914,95.438,540.923,538.636,0.0
51112.0,STARLINK-3374,PAYLOAD,2023-06-17 18:42:35,15.08836626,0.0001625,53.2158,79.9347,111.3962,248.7204,-0.00027803,-4.71e-05,0.0,0 STARLINK-3374,1 51112U 22005J   23168.77957899 -.00004710  00000-0 -27803-3 0  9997,2 51112  53.2158  79.9347 0001625 111.3962 248.7204 15.08836626 79640,6917.891,95.438,540.88,538.632,0.0
51112.0,STARLINK-3374,PAYLOAD,2023-06-18 10:36:26,15.08834407,0.0001185,53.218,76.963,106.1531,253.9592,-3.66e-05,-8.7e-06,0.0,0 STARLINK-3374,1 51112U 22005J   23169.44197698 -.00000870  00000-0 -36600-4 0  9994,2 51112  53.2180  76.9630 0001185 106.1531 253.9592 15.08834407 78633,6917.897,95.438,540.582,538.943,0.0
51112.0,STARLINK-3374,PAYLOAD,2023-06-18 18:33:22,15.08842391,0.000107,53.2177,75.476,98.5782,261.5331,3.4657e-05,2.64e-06,0.0,0 STARLINK-3374,1 51112U 22005J   23169.77317165  .00000264  00000-0  34657-4 0  9998,2 51112  53.2177  75.4760 0001070  98.5782 261.5331 15.08842391 79797,6917.873,95.437,540.478,538.998,0.0
51112.0,STARLINK-3374,PAYLOAD,2023-06-19 12:02:36,15.08842139,9.48e-05,53.2171,72.2061,101.4202,258.6897,0.00022947,3.366e-05,0.0,0 STARLINK-3374,1 51112U 22005J   23170.50181206  .00003366  00000-0  22947-3 0  9990,2 51112  53.2171  72.2061 0000948 101.4202 258.6897 15.08842139 78797,6917.874,95.437,540.395,539.083,0.0
51112.0,STARLINK-3374,PAYLOAD,2023-06-20 02:21:05,15.08839369,0.0001005,53.2171,69.5295,95.5962,264.5145,0.00023483,3.451e-05,0.0,0 STARLINK-3374,1 51112U 22005J   23171.09797621  .00003451  00000-0  23483-3 0  9990,2 51112  53.2171  69.5295 0001005  95.5962 264.5145 15.08839369 79992,6917.882,95.438,540.443,539.052,0.0
51112.0,STARLINK-3374,PAYLOAD,2023-06-20 10:18:00,15.08845494,0.000101,53.217,68.0427,90.7382,269.3726,0.00022506,3.296e-05,0.0,0 STARLINK-3374,1 51112U 22005J   23171.42917365  .00003296  00000-0  22506-3 0  9998,2 51112  53.2170  68.0427 0001010  90.7382 269.3726 15.08845494 78938,6917.864,95.437,540.427,539.03,0.0
51112.0,STARLINK-3374,PAYLOAD,2023-06-20 18:14:56,15.08840288,0.0001036,53.2165,66.5566,89.327,270.7841,1.9206e-05,1.8e-07,0.0,0 STARLINK-3374,1 51112U 22005J   23171.76037457  .00000018  00000-0  19206-4 0  9993,2 51112  53.2165  66.5566 0001036  89.3270 270.7841 15.08840288 78982,6917.88,95.438,540.461,539.028,0.0
51112.0,STARLINK-3374,PAYLOAD,2023-06-21 10:08:47,15.08846031,0.0001076,53.2176,63.5821,85.8784,274.2331,5.8046e-05,6.36e-06,0.0,0 STARLINK-3374,1 51112U 22005J   23172.42277203  .00000636  00000-0  58046-4 0  9993,2 51112  53.2176  63.5821 0001076  85.8784 274.2331 15.08846031 80191,6917.862,95.437,540.471,538.983,0.0
51112.0,STARLINK-3374,PAYLOAD,2023-06-22 09:59:34,15.08844137,0.0001048,53.217,59.1212,89.1549,270.9563,0.00011251,1.503e-05,0.0,0 STARLINK-3374,1 51112U 22005J   23173.41637387  .00001503  00000-0  11251-3 0  9996,2 51112  53.2170  59.1212 0001048  89.1549 270.9563 15.08844137 80347,6917.868,95.437,540.458,539.008,0.0
51112.0,STARLINK-3374,PAYLOAD,2023-06-23 16:11:54,15.08837628,0.0001174,53.2166,53.4701,102.366,257.7464,9.5472e-05,1.232e-05,0.0,0 STARLINK-3374,1 51112U 22005J   23174.67493817  .00001232  00000-0  95472-4 0  9990,2 51112  53.2166  53.4701 0001174 102.3660 257.7464 15.08837628 80535,6917.888,95.438,540.565,538.94,0.0
51112.0,STARLINK-3374,PAYLOAD,2023-06-24 01:44:13,15.08846421,0.0001092,53.2173,51.6863,90.1168,269.995,0.00013832,1.915e-05,0.0,0 STARLINK-3374,1 51112U 22005J   23175.07237440  .00001915  00000-0  13832-3 0  9990,2 51112  53.2173  51.6863 0001092  90.1168 269.9950 15.08846421 80590,6917.861,95.437,540.481,538.97,0.0
51112.0,STARLINK-3374,PAYLOAD,2023-06-25 07:56:32,15.08842089,0.0001156,53.2172,46.037,88.56,271.5524,3.5036e-05,2.7e-06,0.0,0 STARLINK-3374,1 51112U 22005J   23176.33093581  .00000270  00000-0  35036-4 0  9990,2 51112  53.2172  46.0370 0001156  88.5600 271.5524 15.08842089 80786,6917.874,95.437,540.539,538.939,0.0
51112.0,STARLINK-3374,PAYLOAD,2023-06-25 15:53:29,15.08834949,0.0001179,53.2181,44.5525,85.2012,274.9115,3.0438e-05,1.97e-06,0.0,0 STARLINK-3374,1 51112U 22005J   23176.66214248  .00000197  00000-0  30438-4 0  9990,2 51112  53.2181  44.5525 0001179  85.2012 274.9115 15.08834949 80832,6917.896,95.438,540.576,538.945,0.0
51112.0,STARLINK-3374,PAYLOAD,2023-06-27 01:16:34,15.088469,0.0001082,53.2177,38.3059,87.5864,272.5252,8.6817e-05,1.094e-05,0.0,0 STARLINK-3374,1 51112U 22005J   23178.05317695  .00001094  00000-0  86817-4 0  9994,2 51112  53.2177  38.3059 0001082  87.5864 272.5252 15.08846900 81043,6917.859,95.437,540.473,538.976,0.0
51112.0,STARLINK-3374,PAYLOAD,2023-06-27 20:21:12,15.08839834,0.0001086,53.2175,34.7373,82.4616,277.6499,0.00011606,1.56e-05,0.0,0 STARLINK-3374,1 51112U 22005J   23178.84806237  .00001560  00000-0  11606-3 0  9997,2 51112  53.2175  34.7373 0001086  82.4616 277.6499 15.08839834 81163,6917.881,95.438,540.497,538.995,0.0
51112.0,STARLINK-3374,PAYLOAD,2023-06-28 18:36:37,15.08831078,0.0001272,53.219,30.5749,86.3826,273.7312,3.0587e-05,1.99e-06,0.0,0 STARLINK-3374,1 51112U 22005J   23179.77543240  .00000199  00000-0  30587-4 0  9999,2 51112  53.2190  30.5749 0001272  86.3826 273.7312 15.08831078 81303,6917.908,95.438,540.653,538.893,0.0
51112.0,STARLINK-3374,PAYLOAD,2023-06-28 21:47:23,15.08839944,0.0001102,53.2177,29.9793,81.711,278.4007,3.0539e-05,1.98e-06,0.0,0 STARLINK-3374,1 51112U 22005J   23179.90790674  .00000198  00000-0  30539-4 0  9995,2 51112  53.2177  29.9793 0001102  81.7110 278.4007 15.08839944 81321,6917.881,95.438,540.508,538.983,0.0
